IRIDIUM 126             
1 42809U 17039G   25066.81586831  .00000334  00000+0  11223-3 0  9993
2 42809  86.4040 188.5264 0002317  95.8987 264.2473 14.34219663403105
IRIDIUM 124             
1 42810U 17039H   25067.21848330 -.00000138  00000+0 -47148-4 0  9995
2 42810  86.4488 125.2017 0002022  89.3968 270.7465 14.43276809407907
IRIDIUM 128             
1 42811U 17039J   25066.80660534  .00000391  00000+0  13257-3 0  9990
2 42811  86.3977 219.9999 0001942  86.1290 274.0127 14.34217408403136
IRIDIUM 121             
1 42812U 17039K   25067.25350625  .00000042  00000+0  79028-5 0  9991
2 42812  86.4042 188.3681 0002017  97.0767 263.0658 14.34217900403046
IRIDIUM 133             
1 42955U 17061A   25066.97785209  .00000083  00000+0  22479-4 0  9994
2 42955  86.3981 220.0346 0002130  89.8201 270.3239 14.34215956387951
IRIDIUM 100             
1 42956U 17061B   25066.97151149  .00000407  00000+0  13822-3 0  9996
2 42956  86.3980 219.9669 0002050  89.4343 270.7088 14.34217765387956
IRIDIUM 122             
1 42957U 17061C   25066.93979601  .00000117  00000+0  34780-4 0  9999
2 42957  86.3980 219.9791 0002311  90.4905 269.6556 14.34215968387959
IRIDIUM 129             
1 42958U 17061D   25066.96517052  .00000482  00000+0  16510-3 0  9996
2 42958  86.3980 220.0305 0002157 103.3282 256.8155 14.34219077387974
